{
    "links": {
        "self": "http://www.neowsapp.com/rest/v1/neo/3445620?api_key=iIulBulltgU6a56xZRHN4H3l9WmuAYTsLGpBGhQ2"
    },
    "id": "3445620",
    "neo_reference_id": "3445620",
    "name": "(2009 CR1)",
    "designation": "2009 CR1",
    "nasa_jpl_url": "http://ssd.jpl.nasa.gov/sbdb.cgi?sstr=3445620",
    "absolute_magnitude_h": 24.6,
    "estimated_diameter": {
        "kilometers": {
            "estimated_diameter_min": 0.0319561887,
            "estimated_diameter_max": 0.0714562102
        },
        "meters": {
            "estimated_diameter_min": 31.9561886721,
            "estimated_diameter_max": 71.4562101727
        },
        "miles": {
            "estimated_diameter_min": 0.0198566489,
            "estimated_diameter_max": 0.0444008168
        },
        "feet": {
            "estimated_diameter_min": 104.8431420431,
            "estimated_diameter_max": 234.436392583
        }
    },
    "is_potentially_hazardous_asteroid": false,
    "close_approach_data": [
        {
            "close_approach_date": "2009-03-02",
            "close_approach_date_full": "2009-Mar-02 07:10",
            "epoch_date_close_approach": 1235977800000,
            "relative_velocity": {
                "kilometers_per_second": "5.9458948651",
                "kilometers_per_hour": "21405.2215144045",
                "miles_per_hour": "13300.3722237699"
            },
            "miss_distance": {
                "astronomical": "0.0615651385",
                "lunar": "23.9488388765",
                "kilometers": "9210013.585854995",
                "miles": "5722837.070769131"
            },
            "orbiting_body": "Earth"
        }
    ],
    "orbital_data": {
        "orbit_id": "9",
        "orbit_determination_date": "2017-04-06 09:01:25",
        "first_observation_date": "2009-02-03",
        "last_observation_date": "2009-02-20",
        "data_arc_in_days": 17,
        "observations_used": 34,
        "orbit_uncertainty": "8",
        "minimum_orbit_intersection": ".061711",
        "jupiter_tisserand_invariant": "4.081",
        "epoch_osculation": "2454868.5",
        "eccentricity": ".4083480123998796",
        "semi_major_axis": "1.713252844053665",
        "inclination": "4.556750860760119",
        "ascending_node_longitude": "301.1632155546772",
        "orbital_period": "819.0881049474865",
        "perihelion_distance": "1.01364945044591",
        "perihelion_argument": "235.7658899254512",
        "aphelion_distance": "2.41285623766142",
        "perihelion_time": "2454906.129364594085",
        "mean_anomaly": "343.4613991192815",
        "mean_motion": ".439513158383713",
        "equinox": "J2000",
        "orbit_class": {
            "orbit_class_type": "APO",
            "orbit_class_description": "Near-Earth asteroid orbits which cross the Earth’s orbit similar to that of 1862 Apollo",
            "orbit_class_range": "a (semi-major axis) > 1.0 AU; q (perihelion) < 1.017 AU"
        }
    },
    "is_sentry_object": false
}